{
  "type": "FeatureCollection",
  "features": [
    {
      "type": "Feature",
      "properties": {
        "norad_id": 37428,
        "name": "FENGYUN 1C DEB",
        "group": "fengyun-1c-debris",
        "lat": 0.06220352157138004,
        "lon": -141.0032390707171,
        "alt_km": 762.2630861968601,
        "timestamp": "2025-12-23T11:34:48.451490+00:00",
        "meta_object_name": "FENGYUN 1C DEB",
        "meta_object_id": "1999-025EGW",
        "meta_epoch": "2025-12-14T08:18:44.705664",
        "meta_mean_motion": 14.34657068,
        "meta_eccentricity": 0.0056813,
        "meta_inclination": 97.722,
        "meta_ra_of_asc_node": 210.8336,
        "meta_arg_of_pericenter": 94.0763,
        "meta_mean_anomaly": 266.6921,
        "meta_ephemeris_type": 0,
        "meta_classification_type": "U",
        "meta_norad_cat_id": 37428,
        "meta_element_set_no": 999,
        "meta_rev_at_epoch": 63459,
        "meta_bstar": 0.0018586443,
        "meta_mean_motion_dot": 5.32e-05,
        "meta_mean_motion_ddot": 0,
        "tle_line1": "1 37428U 99025EGW 25348.34635076  .00005320  00000+0  18586-2 0  9994",
        "tle_line2": "2 37428  97.7220 210.8336 0056813  94.0763 266.6921 14.34657068634591"
      },
      "geometry": {
        "type": "Point",
        "coordinates": [
          -141.0032390707171,
          0.06220352157138004
        ]
      }
    },
    {
      "type": "Feature",
      "properties": {
        "norad_id": 37430,
        "name": "FENGYUN 1C DEB",
        "group": "fengyun-1c-debris",
        "lat": -38.22702867860797,
        "lon": -115.33652416107184,
        "alt_km": 814.2646776042957,
        "timestamp": "2025-12-23T11:34:48.451498+00:00",
        "meta_object_name": "FENGYUN 1C DEB",
        "meta_object_id": "1999-025EGY",
        "meta_epoch": "2025-12-05T03:58:16.719456",
        "meta_mean_motion": 14.28846273,
        "meta_eccentricity": 0.001883,
        "meta_inclination": 98.7668,
        "meta_ra_of_asc_node": 53.2332,
        "meta_arg_of_pericenter": 93.5332,
        "meta_mean_anomaly": 266.8003,
        "meta_ephemeris_type": 0,
        "meta_classification_type": "U",
        "meta_norad_cat_id": 37430,
        "meta_element_set_no": 999,
        "meta_rev_at_epoch": 61593,
        "meta_bstar": 0.0038447795,
        "meta_mean_motion_dot": 9.683e-05,
        "meta_mean_motion_ddot": 0,
        "tle_line1": "1 37430U 99025EGY 25339.16547129  .00009683  00000+0  38448-2 0  9993",
        "tle_line2": "2 37430  98.7668  53.2332 0018830  93.5332 266.8003 14.28846273615930"
      },
      "geometry": {
        "type": "Point",
        "coordinates": [
          -115.33652416107184,
          -38.22702867860797
        ]
      }
    },
    {
      "type": "Feature",
      "properties": {
        "norad_id": 37432,
        "name": "FENGYUN 1C DEB",
        "group": "fengyun-1c-debris",
        "lat": 27.54717641692822,
        "lon": -165.18384890466066,
        "alt_km": 738.9399778243414,
        "timestamp": "2025-12-23T11:34:48.451507+00:00",
        "meta_object_name": "FENGYUN 1C DEB",
        "meta_object_id": "1999-025EHA",
        "meta_epoch": "2025-12-18T06:57:07.635744",
        "meta_mean_motion": 14.53484478,
        "meta_eccentricity": 0.01820098,
        "meta_inclination": 98.1832,
        "meta_ra_of_asc_node": 5.4367,
        "meta_arg_of_pericenter": 270.6812,
        "meta_mean_anomaly": 87.3534,
        "meta_ephemeris_type": 0,
        "meta_classification_type": "U",
        "meta_norad_cat_id": 37432,
        "meta_element_set_no": 999,
        "meta_rev_at_epoch": 8457,
        "meta_bstar": 0.00071615853,
        "meta_mean_motion_dot": 3.664e-05,
        "meta_mean_motion_ddot": 0,
        "tle_line1": "1 37432U 99025EHA 25352.28967171  .00003664  00000+0  71616-3 0  9994",
        "tle_line2": "2 37432  98.1832   5.4367 0182009 270.6812  87.3534 14.53484478 84575"
      },
      "geometry": {
        "type": "Point",
        "coordinates": [
          -165.18384890466066,
          27.54717641692822
        ]
      }
    },
    {
      "type": "Feature",
      "properties": {
        "norad_id": 37435,
        "name": "FENGYUN 1C DEB",
        "group": "fengyun-1c-debris",
        "lat": -51.48928706736223,
        "lon": 44.614286161664026,
        "alt_km": 800.660646520083,
        "timestamp": "2025-12-23T11:34:48.451517+00:00",
        "meta_object_name": "FENGYUN 1C DEB",
        "meta_object_id": "1999-025EHD",
        "meta_epoch": "2025-12-22T20:37:47.221248",
        "meta_mean_motion": 14.22406478,
        "meta_eccentricity": 0.0039957,
        "meta_inclination": 98.647,
        "meta_ra_of_asc_node": 32.9785,
        "meta_arg_of_pericenter": 345.0164,
        "meta_mean_anomaly": 14.9828,
        "meta_ephemeris_type": 0,
        "meta_classification_type": "U",
        "meta_norad_cat_id": 37435,
        "meta_element_set_no": 999,
        "meta_rev_at_epoch": 89083,
        "meta_bstar": 0.0010251,
        "meta_mean_motion_dot": 2.258e-05,
        "meta_mean_motion_ddot": 0,
        "tle_line1": "1 37435U 99025EHD 25356.85957432  .00002258  00000+0  10251-2 0  9998",
        "tle_line2": "2 37435  98.6470  32.9785 0039957 345.0164  14.9828 14.22406478890836"
      },
      "geometry": {
        "type": "Point",
        "coordinates": [
          44.614286161664026,
          -51.48928706736223
        ]
      }
    },
    {
      "type": "Feature",
      "properties": {
        "norad_id": 37436,
        "name": "FENGYUN 1C DEB",
        "group": "fengyun-1c-debris",
        "lat": 43.45439375688315,
        "lon": -119.59114890521512,
        "alt_km": 826.677856065684,
        "timestamp": "2025-12-23T11:34:48.451526+00:00",
        "meta_object_name": "FENGYUN 1C DEB",
        "meta_object_id": "1999-025EHE",
        "meta_epoch": "2025-12-22T09:19:41.939904",
        "meta_mean_motion": 14.06365213,
        "meta_eccentricity": 0.0059872,
        "meta_inclination": 98.9354,
        "meta_ra_of_asc_node": 50.7568,
        "meta_arg_of_pericenter": 121.4973,
        "meta_mean_anomaly": 239.2064,
        "meta_ephemeris_type": 0,
        "meta_classification_type": "U",
        "meta_norad_cat_id": 37436,
        "meta_element_set_no": 999,
        "meta_rev_at_epoch": 64134,
        "meta_bstar": 0.00053924,
        "meta_mean_motion_dot": 8.61e-06,
        "meta_mean_motion_ddot": 0,
        "tle_line1": "1 37436U 99025EHE 25356.38867986  .00000861  00000+0  53924-3 0  9994",
        "tle_line2": "2 37436  98.9354  50.7568 0059872 121.4973 239.2064 14.06365213641347"
      },
      "geometry": {
        "type": "Point",
        "coordinates": [
          -119.59114890521512,
          43.45439375688315
        ]
      }
    },
    {
      "type": "Feature",
      "properties": {
        "norad_id": 37437,
        "name": "FENGYUN 1C DEB",
        "group": "fengyun-1c-debris",
        "lat": 2.5161558546127654,
        "lon": 169.40820544591887,
        "alt_km": 908.3585186494138,
        "timestamp": "2025-12-23T11:34:48.451554+00:00",
        "meta_object_name": "FENGYUN 1C DEB",
        "meta_object_id": "1999-025EHF",
        "meta_epoch": "2025-12-20T19:00:38.354112",
        "meta_mean_motion": 14.18871873,
        "meta_eccentricity": 0.01134679,
        "meta_inclination": 98.5873,
        "meta_ra_of_asc_node": 346.4214,
        "meta_arg_of_pericenter": 25.3496,
        "meta_mean_anomaly": 96.9024,
        "meta_ephemeris_type": 0,
        "meta_classification_type": "U",
        "meta_norad_cat_id": 37437,
        "meta_element_set_no": 999,
        "meta_rev_at_epoch": 64105,
        "meta_bstar": 0.00047000857,
        "meta_mean_motion_dot": 1.001e-05,
        "meta_mean_motion_ddot": 0,
        "tle_line1": "1 37437U 99025EHF 25354.79211058  .00001001  00000+0  47001-3 0  9997",
        "tle_line2": "2 37437  98.5873 346.4214 0113467  25.3496  96.9024 14.18871873641055"
      },
      "geometry": {
        "type": "Point",
        "coordinates": [
          169.40820544591887,
          2.5161558546127654
        ]
      }
    },
    {
      "type": "Feature",
      "properties": {
        "norad_id": 37438,
        "name": "FENGYUN 1C DEB",
        "group": "fengyun-1c-debris",
        "lat": 65.04221978302392,
        "lon": 16.957681329552106,
        "alt_km": 845.8230808796379,
        "timestamp": "2025-12-23T11:34:48.451563+00:00",
        "meta_object_name": "FENGYUN 1C DEB",
        "meta_object_id": "1999-025EHG",
        "meta_epoch": "2025-12-21T08:22:21.632736",
        "meta_mean_motion": 14.15537452,
        "meta_eccentricity": 0.00292539,
        "meta_inclination": 98.7396,
        "meta_ra_of_asc_node": 34.1665,
        "meta_arg_of_pericenter": 196.5501,
        "meta_mean_anomaly": 163.4721,
        "meta_ephemeris_type": 0,
        "meta_classification_type": "U",
        "meta_norad_cat_id": 37438,
        "meta_element_set_no": 999,
        "meta_rev_at_epoch": 60257,
        "meta_bstar": 0.00052675436,
        "meta_mean_motion_dot": 9.91e-06,
        "meta_mean_motion_ddot": 0,
        "tle_line1": "1 37438U 99025EHG 25355.34886149  .00000991  00000+0  52675-3 0  9999",
        "tle_line2": "2 37438  98.7396  34.1665 0029253 196.5501 163.4721 14.15537452602573"
      },
      "geometry": {
        "type": "Point",
        "coordinates": [
          16.957681329552106,
          65.04221978302392
        ]
      }
    }
  ]
}